{"type": "FeatureCollection", "features": [ {"type": "Feature", "properties": {"norad_id": 31773, "name": "FENGYUN 1C DEB", "group": "fengyun-1c-debris", "lat": -59.6025734639939, "lon": 9.427441665765448, "alt_km": 685.2212479486479, "timestamp": "2025-12-27T10:28:59.078557+00:00", "meta": {"OBJECT_NAME": "FENGYUN 1C DEB", "OBJECT_ID": "1999-025CFY", "EPOCH": "2025-12-23T05:41:28.848480", "MEAN_MOTION": 14.730751, "ECCENTRICITY": 0.00397514, "INCLINATION": 98.95, "RA_OF_ASC_NODE": 349.2185, "ARG_OF_PERICENTER": 145.6123, "MEAN_ANOMALY": 214.7666, "EPHEMERIS_TYPE": 0, "CLASSIFICATION_TYPE": "U", "NORAD_CAT_ID": 31773, "ELEMENT_SET_NO": 999, "REV_AT_EPOCH": 65329, "BSTAR": 0.0018495953, "MEAN_MOTION_DOT": 0.00012007, "MEAN_MOTION_DDOT": 0}, "tle": {"line1": "1 31773U 99025CFY 25357.23713945  .00012007  00000+0  18496-2 0  9991", "line2": "2 31773  98.9500 349.2185 0039751 145.6123 214.7666 14.73075100653298"}}, "geometry": {"type": "Point", "coordinates": [9.427441665765448, -59.6025734639939]}}, {"type": "Feature", "properties": {"norad_id": 31776, "name": "FENGYUN 1C DEB", "group": "fengyun-1c-debris", "lat": 18.929702282591087, "lon": 58.3712207430507, "alt_km": 827.8428433434028, "timestamp": "2025-12-27T10:28:59.078567+00:00", "meta": {"OBJECT_NAME": "FENGYUN 1C DEB", "OBJECT_ID": "1999-025CGB", "EPOCH": "2025-12-22T03:34:27.360192", "MEAN_MOTION": 14.18599127, "ECCENTRICITY": 0.00542431, "INCLINATION": 99.0724, "RA_OF_ASC_NODE": 56.1061, "ARG_OF_PERICENTER": 307.3827, "MEAN_ANOMALY": 81.1299, "EPHEMERIS_TYPE": 0, "CLASSIFICATION_TYPE": "U", "NORAD_CAT_ID": 31776, "ELEMENT_SET_NO": 999, "REV_AT_EPOCH": 95014, "BSTAR": 0.0013053929, "MEAN_MOTION_DOT": 2.697e-05, "MEAN_MOTION_DDOT": 0}, "tle": {"line1": "1 31776U 99025CGB 25356.14892778  .00002697  00000+0  13054-2 0  9994", "line2": "2 31776  99.0724  56.1061 0054243 307.3827  81.1299 14.18599127950140"}}, "geometry": {"type": "Point", "coordinates": [58.3712207430507, 18.929702282591087]}}, {"type": "Feature", "properties": {"norad_id": 31779, "name": "FENGYUN 1C DEB", "group": "fengyun-1c-debris", "lat": 79.15273023149692, "lon": 161.4832189623245, "alt_km": 634.8939293973754, "timestamp": "2025-12-27T10:28:59.078577+00:00", "meta": {"OBJECT_NAME": "FENGYUN 1C DEB", "OBJECT_ID": "1999-025CGE", "EPOCH": "2025-12-24T13:44:40.627680", "MEAN_MOTION": 14.41620796, "ECCENTRICITY": 0.02137749, "INCLINATION": 99.2994, "RA_OF_ASC_NODE": 279.5931, "ARG_OF_PERICENTER": 148.2012, "MEAN_ANOMALY": 213.2292, "EPHEMERIS_TYPE": 0, "CLASSIFICATION_TYPE": "U", "NORAD_CAT_ID": 31779, "ELEMENT_SET_NO": 999, "REV_AT_EPOCH": 97180, "BSTAR": 0.00022659181, "MEAN_MOTION_DOT": 9.08e-06, "MEAN_MOTION_DDOT": 0}, "tle": {"line1": "1 31779U 99025CGE 25358.57269245  .00000908  00000+0  22659-3 0  9998", "line2": "2 31779  99.2994 279.5931 0213774 148.2012 213.2292 14.41620796971805"}}, "geometry": {"type": "Point", "coordinates": [161.4832189623245, 79.15273023149692]}}, {"type": "Feature", "properties": {"norad_id": 31780, "name": "FENGYUN 1C DEB", "group": "fengyun-1c-debris", "lat": 78.50320638518656, "lon": 29.644970378052424, "alt_km": 650.8162529775173, "timestamp": "2025-12-27T10:28:59.078589+00:00", "meta": {"OBJECT_NAME": "FENGYUN 1C DEB", "OBJECT_ID": "1999-025CGF", "EPOCH": "2025-12-27T03:31:01.570080", "MEAN_MOTION": 14.69589941, "ECCENTRICITY": 0.0150189, "INCLINATION": 99.2873, "RA_OF_ASC_NODE": 155.7496, "ARG_OF_PERICENTER": 9.0856, "MEAN_ANOMALY": 351.3008, "EPHEMERIS_TYPE": 0, "CLASSIFICATION_TYPE": "U", "NORAD_CAT_ID": 31780, "ELEMENT_SET_NO": 999, "REV_AT_EPOCH": 98709, "BSTAR": 0.00028078, "MEAN_MOTION_DOT": 1.91e-05, "MEAN_MOTION_DDOT": 0}, "tle": {"line1": "1 31780U 99025CGF 25361.14654595  .00001910  00000+0  28078-3 0  9998", "line2": "2 31780  99.2873 155.7496 0150189   9.0856 351.3008 14.69589941987097"}}, "geometry": {"type": "Point", "coordinates": [29.644970378052424, 78.50320638518656]}}, {"type": "Feature", "properties": {"norad_id": 31781, "name": "FENGYUN 1C DEB", "group": "fengyun-1c-debris", "lat": 61.78909481840322, "lon": 11.422677652320205, "alt_km": 905.6799270299471, "timestamp": "2025-12-27T10:28:59.078599+00:00", "meta": {"OBJECT_NAME": "FENGYUN 1C DEB", "OBJECT_ID": "1999-025CGG", "EPOCH": "2025-12-21T17:58:10.718688", "MEAN_MOTION": 14.13089707, "ECCENTRICITY": 0.02036323, "INCLINATION": 99.4977, "RA_OF_ASC_NODE": 167.2029, "ARG_OF_PERICENTER": 248.9414, "MEAN_ANOMALY": 108.9873, "EPHEMERIS_TYPE": 0, "CLASSIFICATION_TYPE": "U", "NORAD_CAT_ID": 31781, "ELEMENT_SET_NO": 999, "REV_AT_EPOCH": 68475, "BSTAR": 0.002913809, "MEAN_MOTION_DOT": 6.584e-05, "MEAN_MOTION_DDOT": 0}, "tle": {"line1": "1 31781U 99025CGG 25355.74873517  .00006584  00000+0  29138-2 0  9994", "line2": "2 31781  99.4977 167.2029 0203632 248.9414 108.9873 14.13089707684758"}}, "geometry": {"type": "Point", "coordinates": [11.422677652320205, 61.78909481840322]}}, {"type": "Feature", "properties": {"norad_id": 31782, "name": "FENGYUN 1C DEB", "group": "fengyun-1c-debris", "lat": 4.352751800785682, "lon": 162.43352933928793, "alt_km": 737.3528551659292, "timestamp": "2025-12-27T10:28:59.078609+00:00", "meta": {"OBJECT_NAME": "FENGYUN 1C DEB", "OBJECT_ID": "1999-025CGH", "EPOCH": "2025-12-26T05:14:05.181792", "MEAN_MOTION": 14.36263729, "ECCENTRICITY": 0.0079005, "INCLINATION": 98.9045, "RA_OF_ASC_NODE": 161.8583, "ARG_OF_PERICENTER": 317.15, "MEAN_ANOMALY": 229.0091, "EPHEMERIS_TYPE": 0, "CLASSIFICATION_TYPE": "U", "NORAD_CAT_ID": 31782, "ELEMENT_SET_NO": 999, "REV_AT_EPOCH": 96884, "BSTAR": 0.00040452, "MEAN_MOTION_DOT": 1.176e-05, "MEAN_MOTION_DDOT": 0}, "tle": {"line1": "1 31782U 99025CGH 25360.21811553  .00001176  00000+0  40452-3 0  9990", "line2": "2 31782  98.9045 161.8583 0079005 317.1500 229.0091 14.36263729968849"}}, "geometry": {"type": "Point", "coordinates": [162.43352933928793, 4.352751800785682]}}, {"type": "Feature", "properties": {"norad_id": 31783, "name": "FENGYUN 1C DEB", "group": "fengyun-1c-debris", "lat": -70.91383844438604, "lon": 163.4796250754471, "alt_km": 902.396522160434, "timestamp": "2025-12-27T10:28:59.078619+00:00", "meta": {"OBJECT_NAME": "FENGYUN 1C DEB", "OBJECT_ID": "1999-025CGJ", "EPOCH": "2025-12-24T19:04:25.726080", "MEAN_MOTION": 14.08851536, "ECCENTRICITY": 0.01037929, "INCLINATION": 98.6048, "RA_OF_ASC_NODE": 6.9084, "ARG_OF_PERICENTER": 15.9575, "MEAN_ANOMALY": 165.3181, "EPHEMERIS_TYPE": 0, "CLASSIFICATION_TYPE": "U", "NORAD_CAT_ID": 31783, "ELEMENT_SET_NO": 999, "REV_AT_EPOCH": 89390, "BSTAR": 0.00053741578, "MEAN_MOTION_DOT": 9.34e-06, "MEAN_MOTION_DDOT": 0}, "tle": {"line1": "1 31783U 99025CGJ 25358.79474220  .00000934  00000+0  53742-3 0  9994", "line2": "2 31783  98.6048   6.9084 0103792  15.9575 165.3181 14.08851536893905"}}, "geometry": {"type": "Point", "coordinates": [163.4796250754471, -70.91383844438604]}}, {"type": "Feature", "properties": {"norad_id": 31788, "name": "FENGYUN 1C DEB", "group": "fengyun-1c-debris", "lat": 23.630959739030203, "lon": -26.300781847669466, "alt_km": 1142.2918035589291, "timestamp": "2025-12-27T10:28:59.078632+00:00", "meta": {"OBJECT_NAME": "FENGYUN 1C DEB", "OBJECT_ID": "1999-025CGP", "EPOCH": "2025-12-26T21:57:58.717152", "MEAN_MOTION": 13.45157696, "ECCENTRICITY": 0.0461361, "INCLINATION": 102.5553, "RA_OF_ASC_NODE": 147.4518, "ARG_OF_PERICENTER": 55.356, "MEAN_ANOMALY": 90.6745, "EPHEMERIS_TYPE": 0, "CLASSIFICATION_TYPE": "U", "NORAD_CAT_ID": 31788, "ELEMENT_SET_NO": 999, "REV_AT_EPOCH": 90795, "BSTAR": 0.0023901, "MEAN_MOTION_DOT": 2.623e-05, "MEAN_MOTION_DDOT": 0}, "tle": {"line1": "1 31788U 99025CGP 25360.91526293  .00002623  00000+0  23901-2 0  9994", "line2": "2 31788 102.5553 147.4518 0461361  55.3560  90.6745 13.45157696907953"}}, "geometry": {"type": "Point", "coordinates": [-26.300781847669466, 23.630959739030203]}}, {"type": "Feature", "properties": {"norad_id": 31805, "name": "FENGYUN 1C DEB", "group": "fengyun-1c-debris", "lat": -3.373085743427719, "lon": 163.98280737425452, "alt_km": 742.9137886382969, "timestamp": "2025-12-27T10:28:59.078644+00:00", "meta": {"OBJECT_NAME": "FENGYUN 1C DEB", "OBJECT_ID": "1999-025CGT", "EPOCH": "2025-12-26T09:41:32.092224", "MEAN_MOTION": 14.02928431, "ECCENTRICITY": 0.0447172, "INCLINATION": 98.3634, "RA_OF_ASC_NODE": 343.5266, "ARG_OF_PERICENTER": 120.2337, "MEAN_ANOMALY": 244.389, "EPHEMERIS_TYPE": 0, "CLASSIFICATION_TYPE": "U", "NORAD_CAT_ID": 31805, "ELEMENT_SET_NO": 999, "REV_AT_EPOCH": 62555, "BSTAR": 0.0014385, "MEAN_MOTION_DOT": 5.414e-05, "MEAN_MOTION_DDOT": 0}, "tle": {"line1": "1 31805U 99025CGT 25360.40384366  .00005414  00000+0  14385-2 0  9998", "line2": "2 31805  98.3634 343.5266 0447172 120.2337 244.3890 14.02928431625551"}}, "geometry": {"type": "Point", "coordinates": [163.98280737425452, -3.373085743427719]}}, {"type": "Feature", "properties": {"norad_id": 31807, "name": "FENGYUN 1C DEB", "group": "fengyun-1c-debris", "lat": -37.41814758707695, "lon": -53.45598288891639, "alt_km": 736.3391676021038, "timestamp": "2025-12-27T10:28:59.078654+00:00", "meta": {"OBJECT_NAME": "FENGYUN 1C DEB", "OBJECT_ID": "1999-025CGV", "EPOCH": "2025-12-23T02:57:48.388608", "MEAN_MOTION": 14.52113828, "ECCENTRICITY": 0.01056707, "INCLINATION": 99.0777, "RA_OF_ASC_NODE": 128.9097, "ARG_OF_PERICENTER": 131.5185, "MEAN_ANOMALY": 229.5134, "EPHEMERIS_TYPE": 0, "CLASSIFICATION_TYPE": "U", "NORAD_CAT_ID": 31807, "ELEMENT_SET_NO": 999, "REV_AT_EPOCH": 65456, "BSTAR": 0.00086617726, "MEAN_MOTION_DOT": 3.718e-05, "MEAN_MOTION_DDOT": 0}, "tle": {"line1": "1 31807U 99025CGV 25357.12347672  .00003718  00000+0  86618-3 0  9998", "line2": "2 31807  99.0777 128.9097 0105670 131.5185 229.5134 14.52113828654566"}}, "geometry": {"type": "Point", "coordinates": [-53.45598288891639, -37.41814758707695]}}]}